IRIDIUM 69              
1 25319U 98026A   25076.59468355  .00001141  00000+0  35036-3 0  9996
2 25319  86.3986 134.1321 0002022  30.3259 329.8057 14.40823387409877
IRIDIUM 71              
1 25320U 98026B   25076.61398130  .00000975  00000+0  29708-3 0  9997
2 25320  86.3971 128.8330 0003756  62.6523 297.5058 14.41030084410408
IRIDIUM 73              
1 25344U 98032C   25076.52032932  .00001638  00000+0  40490-3 0  9993
2 25344  86.4352  85.7569 0001892  76.9175 283.2242 14.51507564417264
IRIDIUM 82              
1 25467U 98051A   25076.24588577  .00039002  00000+0  13134-2 0  9990
2 25467  86.3734 154.7459 0093222 284.1936  74.8968 15.26430687409909
